STARLINK-34070          
1 63913U 25095Z   26068.33378323  .00030089  00000+0  10985-2 0  9991
2 63913  42.9995 178.1983 0001031 242.7740 117.3007 15.27579271 47725
REAL                    
1 64875U 25154G   26068.72233414  .00022901  00000+0  82904-3 0  9994
2 64875  97.4133 137.2581 0001853 118.5876 241.5550 15.28408058 34830
